ONEWEB-0546             
1 56048U 23043C   26064.51574367  .00000084  00000+0  18715-3 0  9997
2 56048  87.9005 249.3947 0001837  73.4648 286.6685 13.16593758145327
ONEWEB-0547             
1 56049U 23043D   26064.54481973  .00000051  00000+0  91293-4 0  9998
2 56049  87.9165 264.6401 0001699  91.6398 268.4930 13.21824566144533
ONEWEB-0548             
1 56050U 23043E   26064.54028209 -.00000051  00000+0 -16657-3 0  9991
2 56050  87.8997 249.3891 0001113  97.7369 262.3888 13.16592135145327
ONEWEB-0549             
1 56051U 23043F   26064.61312732 -.00000030  00000+0 -10338-3 0  9994
2 56051  87.9163 264.6384 0001809  95.8879 264.2461 13.21826521144544
ONEWEB-0550             
1 56052U 23043G   26064.59994110  .00000065  00000+0  12474-3 0  9997
2 56052  87.9165 264.6364 0001515  93.1974 266.9333 13.21824415144543
ONEWEB-0551             
1 56053U 23043H   26064.56515583  .00000049  00000+0  96385-4 0  9994
2 56053  87.8942 279.9197 0001833  93.8130 266.3210 13.15548049142773
ONEWEB-0552             
1 56054U 23043J   26064.59502239  .00000034  00000+0  50973-4 0  9999
2 56054  87.9162 264.6457 0001593  99.2604 260.8711 13.21825501144548
ONEWEB-0553             
1 56055U 23043K   26064.52207261  .00000078  00000+0  17000-3 0  9991
2 56055  87.9000 249.3954 0001545  82.5408 277.5898 13.16593776145335
ONEWEB-0554             
1 56056U 23043L   26064.50940526  .00000077  00000+0  16686-3 0  9996
2 56056  87.9000 249.4090 0001299  93.7530 266.3750 13.16593619145311
ONEWEB-0555             
1 56057U 23043M   26064.54740879 -.00000055  00000+0 -17843-3 0  9994
2 56057  87.9005 249.3867 0001650  75.7187 284.4128 13.16593611145320
ONEWEB-0557             
1 56058U 23043N   26064.56165370  .00000035  00000+0  58780-4 0  9996
2 56058  87.9002 249.3948 0000850  40.0103 320.1091 13.16592935145327
ONEWEB-0558             
1 56059U 23043P   26064.58843569  .00000070  00000+0  13870-3 0  9991
2 56059  87.9163 264.6393 0002098  97.1375 262.9998 13.21825788144554
ONEWEB-0559             
1 56060U 23043Q   26064.57689762 -.00000089  00000+0 -24817-3 0  9990
2 56060  87.9160 264.6350 0001764 101.0134 259.1198 13.21826919144561
ONEWEB-0566             
1 56061U 23043R   26064.57033495  .00000037  00000+0  57208-4 0  9999
2 56061  87.9164 264.6362 0001855  99.0998 261.0346 13.21826385144546
ONEWEB-0568             
1 56062U 23043S   26064.50308701  .00000417  00000+0  10561-2 0  9999
2 56062  87.9001 249.3966 0001583  83.0003 277.1308 13.16594157145332
ONEWEB-0574             
1 56063U 23043T   26064.56375376  .00000122  00000+0  26406-3 0  9997
2 56063  87.9176 264.6301 0001415  89.4344 270.6952 13.21825836144587
ONEWEB-0575             
1 56064U 23043U   26064.57273706  .00000094  00000+0  21191-3 0  9997
2 56064  87.8999 249.3802 0001226  82.0425 278.0845 13.16593330145337
