[{"OBJECT_NAME":"ONEWEB-0546","OBJECT_ID":"2023-043C","EPOCH":"2026-03-05T12:22:40.253088","MEAN_MOTION":13.16593758,"ECCENTRICITY":0.0001837,"INCLINATION":87.9005,"RA_OF_ASC_NODE":249.3947,"ARG_OF_PERICENTER":73.4648,"MEAN_ANOMALY":286.6685,"EPHEMERIS_TYPE":0,"CLASSIFICATION_TYPE":"U","NORAD_CAT_ID":56048,"ELEMENT_SET_NO":999,"REV_AT_EPOCH":14532,"BSTAR":0.00018714674,"MEAN_MOTION_DOT":8.4e-7,"MEAN_MOTION_DDOT":0},{"OBJECT_NAME":"ONEWEB-0547","OBJECT_ID":"2023-043D","EPOCH":"2026-03-05T13:04:32.424672","MEAN_MOTION":13.21824566,"ECCENTRICITY":0.00016991,"INCLINATION":87.9165,"RA_OF_ASC_NODE":264.6401,"ARG_OF_PERICENTER":91.6398,"MEAN_ANOMALY":268.493,"EPHEMERIS_TYPE":0,"CLASSIFICATION_TYPE":"U","NORAD_CAT_ID":56049,"ELEMENT_SET_NO":999,"REV_AT_EPOCH":14453,"BSTAR":9.1292691e-5,"MEAN_MOTION_DOT":5.1e-7,"MEAN_MOTION_DDOT":0},{"OBJECT_NAME":"ONEWEB-0548","OBJECT_ID":"2023-043E","EPOCH":"2026-03-05T12:58:00.372576","MEAN_MOTION":13.16592135,"ECCENTRICITY":0.00011135,"INCLINATION":87.8997,"RA_OF_ASC_NODE":249.3891,"ARG_OF_PERICENTER":97.7369,"MEAN_ANOMALY":262.3888,"EPHEMERIS_TYPE":0,"CLASSIFICATION_TYPE":"U","NORAD_CAT_ID":56050,"ELEMENT_SET_NO":999,"REV_AT_EPOCH":14532,"BSTAR":-0.0001665697,"MEAN_MOTION_DOT":-5.1e-7,"MEAN_MOTION_DDOT":0},{"OBJECT_NAME":"ONEWEB-0549","OBJECT_ID":"2023-043F","EPOCH":"2026-03-05T14:42:54.200448","MEAN_MOTION":13.21826521,"ECCENTRICITY":0.00018099,"INCLINATION":87.9163,"RA_OF_ASC_NODE":264.6384,"ARG_OF_PERICENTER":95.8879,"MEAN_ANOMALY":264.2461,"EPHEMERIS_TYPE":0,"CLASSIFICATION_TYPE":"U","NORAD_CAT_ID":56051,"ELEMENT_SET_NO":999,"REV_AT_EPOCH":14454,"BSTAR":-0.00010338264,"MEAN_MOTION_DOT":-3.0e-7,"MEAN_MOTION_DDOT":0},{"OBJECT_NAME":"ONEWEB-0550","OBJECT_ID":"2023-043G","EPOCH":"2026-03-05T14:23:54.911040","MEAN_MOTION":13.21824415,"ECCENTRICITY":0.00015151,"INCLINATION":87.9165,"RA_OF_ASC_NODE":264.6364,"ARG_OF_PERICENTER":93.1974,"MEAN_ANOMALY":266.9333,"EPHEMERIS_TYPE":0,"CLASSIFICATION_TYPE":"U","NORAD_CAT_ID":56052,"ELEMENT_SET_NO":999,"REV_AT_EPOCH":14454,"BSTAR":0.0001247363,"MEAN_MOTION_DOT":6.5e-7,"MEAN_MOTION_DDOT":0},{"OBJECT_NAME":"ONEWEB-0551","OBJECT_ID":"2023-043H","EPOCH":"2026-03-05T13:33:49.463712","MEAN_MOTION":13.15548049,"ECCENTRICITY":0.00018337,"INCLINATION":87.8942,"RA_OF_ASC_NODE":279.9197,"ARG_OF_PERICENTER":93.813,"MEAN_ANOMALY":266.321,"EPHEMERIS_TYPE":0,"CLASSIFICATION_TYPE":"U","NORAD_CAT_ID":56053,"ELEMENT_SET_NO":999,"REV_AT_EPOCH":14277,"BSTAR":9.6385266e-5,"MEAN_MOTION_DOT":4.9e-7,"MEAN_MOTION_DDOT":0},{"OBJECT_NAME":"ONEWEB-0552","OBJECT_ID":"2023-043J","EPOCH":"2026-03-05T14:16:49.934496","MEAN_MOTION":13.21825501,"ECCENTRICITY":0.00015937,"INCLINATION":87.9162,"RA_OF_ASC_NODE":264.6457,"ARG_OF_PERICENTER":99.2604,"MEAN_ANOMALY":260.8711,"EPHEMERIS_TYPE":0,"CLASSIFICATION_TYPE":"U","NORAD_CAT_ID":56054,"ELEMENT_SET_NO":999,"REV_AT_EPOCH":14454,"BSTAR":5.0973296e-5,"MEAN_MOTION_DOT":3.4e-7,"MEAN_MOTION_DDOT":0},{"OBJECT_NAME":"ONEWEB-0553","OBJECT_ID":"2023-043K","EPOCH":"2026-03-05T12:31:47.073504","MEAN_MOTION":13.16593776,"ECCENTRICITY":0.00015455,"INCLINATION":87.9,"RA_OF_ASC_NODE":249.3954,"ARG_OF_PERICENTER":82.5408,"MEAN_ANOMALY":277.5898,"EPHEMERIS_TYPE":0,"CLASSIFICATION_TYPE":"U","NORAD_CAT_ID":56055,"ELEMENT_SET_NO":999,"REV_AT_EPOCH":14533,"BSTAR":0.0001700047,"MEAN_MOTION_DOT":7.8e-7,"MEAN_MOTION_DDOT":0},{"OBJECT_NAME":"ONEWEB-0554","OBJECT_ID":"2023-043L","EPOCH":"2026-03-05T12:13:32.614464","MEAN_MOTION":13.16593619,"ECCENTRICITY":0.00012992,"INCLINATION":87.9,"RA_OF_ASC_NODE":249.409,"ARG_OF_PERICENTER":93.753,"MEAN_ANOMALY":266.375,"EPHEMERIS_TYPE":0,"CLASSIFICATION_TYPE":"U","NORAD_CAT_ID":56056,"ELEMENT_SET_NO":999,"REV_AT_EPOCH":14531,"BSTAR":0.00016685559,"MEAN_MOTION_DOT":7.7e-7,"MEAN_MOTION_DDOT":0},{"OBJECT_NAME":"ONEWEB-0555","OBJECT_ID":"2023-043M","EPOCH":"2026-03-05T13:08:16.119456","MEAN_MOTION":13.16593611,"ECCENTRICITY":0.00016506,"INCLINATION":87.9005,"RA_OF_ASC_NODE":249.3867,"ARG_OF_PERICENTER":75.7187,"MEAN_ANOMALY":284.4128,"EPHEMERIS_TYPE":0,"CLASSIFICATION_TYPE":"U","NORAD_CAT_ID":56057,"ELEMENT_SET_NO":999,"REV_AT_EPOCH":14532,"BSTAR":-0.0001784339,"MEAN_MOTION_DOT":-5.5e-7,"MEAN_MOTION_DDOT":0},{"OBJECT_NAME":"ONEWEB-0557","OBJECT_ID":"2023-043N","EPOCH":"2026-03-05T13:28:46.879680","MEAN_MOTION":13.16592935,"ECCENTRICITY":8.507e-5,"INCLINATION":87.9002,"RA_OF_ASC_NODE":249.3948,"ARG_OF_PERICENTER":40.0103,"MEAN_ANOMALY":320.1091,"EPHEMERIS_TYPE":0,"CLASSIFICATION_TYPE":"U","NORAD_CAT_ID":56058,"ELEMENT_SET_NO":999,"REV_AT_EPOCH":14532,"BSTAR":5.8779901e-5,"MEAN_MOTION_DOT":3.5e-7,"MEAN_MOTION_DDOT":0},{"OBJECT_NAME":"ONEWEB-0558","OBJECT_ID":"2023-043P","EPOCH":"2026-03-05T14:07:20.843616","MEAN_MOTION":13.21825788,"ECCENTRICITY":0.00020985,"INCLINATION":87.9163,"RA_OF_ASC_NODE":264.6393,"ARG_OF_PERICENTER":97.1375,"MEAN_ANOMALY":262.9998,"EPHEMERIS_TYPE":0,"CLASSIFICATION_TYPE":"U","NORAD_CAT_ID":56059,"ELEMENT_SET_NO":999,"REV_AT_EPOCH":14455,"BSTAR":0.00013869941,"MEAN_MOTION_DOT":7.0e-7,"MEAN_MOTION_DDOT":0},{"OBJECT_NAME":"ONEWEB-0559","OBJECT_ID":"2023-043Q","EPOCH":"2026-03-05T13:50:43.954368","MEAN_MOTION":13.21826919,"ECCENTRICITY":0.00017649,"INCLINATION":87.916,"RA_OF_ASC_NODE":264.635,"ARG_OF_PERICENTER":101.0134,"MEAN_ANOMALY":259.1198,"EPHEMERIS_TYPE":0,"CLASSIFICATION_TYPE":"U","NORAD_CAT_ID":56060,"ELEMENT_SET_NO":999,"REV_AT_EPOCH":14456,"BSTAR":-0.00024817199,"MEAN_MOTION_DOT":-8.9e-7,"MEAN_MOTION_DDOT":0},{"OBJECT_NAME":"ONEWEB-0566","OBJECT_ID":"2023-043R","EPOCH":"2026-03-05T13:41:16.939680","MEAN_MOTION":13.21826385,"ECCENTRICITY":0.00018555,"INCLINATION":87.9164,"RA_OF_ASC_NODE":264.6362,"ARG_OF_PERICENTER":99.0998,"MEAN_ANOMALY":261.0346,"EPHEMERIS_TYPE":0,"CLASSIFICATION_TYPE":"U","NORAD_CAT_ID":56061,"ELEMENT_SET_NO":999,"REV_AT_EPOCH":14454,"BSTAR":5.7208136e-5,"MEAN_MOTION_DOT":3.7e-7,"MEAN_MOTION_DDOT":0},{"OBJECT_NAME":"ONEWEB-0568","OBJECT_ID":"2023-043S","EPOCH":"2026-03-05T12:04:26.717664","MEAN_MOTION":13.16594157,"ECCENTRICITY":0.00015839,"INCLINATION":87.9001,"RA_OF_ASC_NODE":249.3966,"ARG_OF_PERICENTER":83.0003,"MEAN_ANOMALY":277.1308,"EPHEMERIS_TYPE":0,"CLASSIFICATION_TYPE":"U","NORAD_CAT_ID":56062,"ELEMENT_SET_NO":999,"REV_AT_EPOCH":14533,"BSTAR":0.0010561047,"MEAN_MOTION_DOT":4.17e-6,"MEAN_MOTION_DDOT":0},{"OBJECT_NAME":"ONEWEB-0574","OBJECT_ID":"2023-043T","EPOCH":"2026-03-05T13:31:48.324864","MEAN_MOTION":13.21825836,"ECCENTRICITY":0.00014155,"INCLINATION":87.9176,"RA_OF_ASC_NODE":264.6301,"ARG_OF_PERICENTER":89.4344,"MEAN_ANOMALY":270.6952,"EPHEMERIS_TYPE":0,"CLASSIFICATION_TYPE":"U","NORAD_CAT_ID":56063,"ELEMENT_SET_NO":999,"REV_AT_EPOCH":14458,"BSTAR":0.00026406232,"MEAN_MOTION_DOT":1.22e-6,"MEAN_MOTION_DDOT":0},{"OBJECT_NAME":"ONEWEB-0575","OBJECT_ID":"2023-043U","EPOCH":"2026-03-05T13:44:44.481984","MEAN_MOTION":13.1659333,"ECCENTRICITY":0.00012261,"INCLINATION":87.8999,"RA_OF_ASC_NODE":249.3802,"ARG_OF_PERICENTER":82.0425,"MEAN_ANOMALY":278.0845,"EPHEMERIS_TYPE":0,"CLASSIFICATION_TYPE":"U","NORAD_CAT_ID":56064,"ELEMENT_SET_NO":999,"REV_AT_EPOCH":14533,"BSTAR":0.00021191171,"MEAN_MOTION_DOT":9.4e-7,"MEAN_MOTION_DDOT":0}]
